{"fetched_at":"2026-03-29T16:36:15Z","count":15609,"tles":[{"name":"STARLINK-31267","line1":"1 59468U 24068P   26087.92802269  .00000385  00000+0  23510-4 0  9993","line2":"2 59468  43.0026 281.6538 0001510 255.5457 104.5228 15.27579706111512","category":"Starlink"}]}