{
  "norad_id": 59468,
  "name": "STARLINK-31267",
  "history": [
    {
      "epoch": "2026-03-28T22:16:21.160416Z",
      "apogee_km": 484.0860156149938,
      "perigee_km": 482.0139371481273,
      "latitude_deg": 5.9645160851236975e-05,
      "longitude_deg": 121.22425836266638,
      "height_km": 483.08557992279304,
      "semi_major_axis_km": 6861.18697638156,
      "eccentricity": 0.000151,
      "inclination_deg": 43.0026,
      "raan_deg": 281.6538,
      "arg_perigee_deg": 255.5457,
      "mean_anomaly_deg": 104.5228,
      "mean_motion_rev_day": 15.27579706
    }
  ]
}